O3B MPOWER F1           
1 54755U 22174A   26191.95209343 -.00000014  00000+0  00000+0 0  9990
2 54755   0.0496 339.6044 0006606 141.1136 278.3436  5.00114763 66542
O3B MPOWER F2           
1 54756U 22174B   26191.89715318 -.00000013  00000+0  00000+0 0  9997
2 54756   0.0455 339.8854 0005803 124.4920 255.6866  5.00114882 66639
O3B MPOWER F4           
1 56367U 23059A   26191.96138647 -.00000014  00000+0  00000+0 0  9993
2 56367   0.0630 350.5872 0007725 122.7056 246.7882  5.00115393 59796
O3B MPOWER F3           
1 56368U 23059B   26191.99452601 -.00000014  00000+0  00000+0 0  9996
2 56368   0.0637 349.8942 0006678 116.6389 253.5399  5.00116479 55915
O3B MPOWER F5           
1 58346U 23175A   26191.89562906 -.00000013  00000+0  00000+0 0  9991
2 58346   0.0517   9.4875 0005450 118.0310 232.5307  5.00115869 50622
O3B MPOWER F6           
1 58347U 23175B   26191.99610462 -.00000014  00000+0  00000+0 0  9995
2 58347   0.0537   1.1460 0004438 106.8405 252.0614  5.00115762 49537
O3B MPOWER F7           
1 62362U 24244A   26191.66272142 -.00000013  00000+0  00000+0 0  9997
2 62362   0.0663 343.6377 0005942 121.6972 254.7305  5.00115255 27691
O3B MPOWER F8           
1 62363U 24244B   26191.62966851 -.00000013  00000+0  00000+0 0  9991
2 62363   0.0143 358.4365 0005793  99.5939 262.0351  5.00115019 22041
