{"fetched_at":"2026-07-11T09:24:31.899Z","source":"https://celestrak.org/NORAD/elements/gp.php?NAME=O3B&FORMAT=JSON","constellation":"o3b-mpower","records":[{"OBJECT_NAME":"O3B MPOWER F1","OBJECT_ID":"2022-174A","EPOCH":"2026-07-10T22:51:00.872352","CLASSIFICATION_TYPE":"U","MEAN_MOTION":5.00114763,"ECCENTRICITY":0.0006606,"INCLINATION":0.0496,"RA_OF_ASC_NODE":339.6044,"ARG_OF_PERICENTER":141.1136,"MEAN_ANOMALY":278.3436,"EPHEMERIS_TYPE":0,"NORAD_CAT_ID":54755,"ELEMENT_SET_NO":999,"REV_AT_EPOCH":6654,"BSTAR":0,"MEAN_MOTION_DOT":-1.4e-7,"MEAN_MOTION_DDOT":0},{"OBJECT_NAME":"O3B MPOWER F2","OBJECT_ID":"2022-174B","EPOCH":"2026-07-10T21:31:54.034752","CLASSIFICATION_TYPE":"U","MEAN_MOTION":5.00114882,"ECCENTRICITY":0.0005803,"INCLINATION":0.0455,"RA_OF_ASC_NODE":339.8854,"ARG_OF_PERICENTER":124.492,"MEAN_ANOMALY":255.6866,"EPHEMERIS_TYPE":0,"NORAD_CAT_ID":54756,"ELEMENT_SET_NO":999,"REV_AT_EPOCH":6663,"BSTAR":0,"MEAN_MOTION_DOT":-1.3e-7,"MEAN_MOTION_DDOT":0},{"OBJECT_NAME":"O3B MPOWER F4","OBJECT_ID":"2023-059A","EPOCH":"2026-07-10T23:04:23.791008","CLASSIFICATION_TYPE":"U","MEAN_MOTION":5.00115393,"ECCENTRICITY":0.0007725,"INCLINATION":0.063,"RA_OF_ASC_NODE":350.5872,"ARG_OF_PERICENTER":122.7056,"MEAN_ANOMALY":246.7882,"EPHEMERIS_TYPE":0,"NORAD_CAT_ID":56367,"ELEMENT_SET_NO":999,"REV_AT_EPOCH":5979,"BSTAR":0,"MEAN_MOTION_DOT":-1.4e-7,"MEAN_MOTION_DDOT":0},{"OBJECT_NAME":"O3B MPOWER F3","OBJECT_ID":"2023-059B","EPOCH":"2026-07-10T23:52:07.047264","CLASSIFICATION_TYPE":"U","MEAN_MOTION":5.00116479,"ECCENTRICITY":0.0006678,"INCLINATION":0.0637,"RA_OF_ASC_NODE":349.8942,"ARG_OF_PERICENTER":116.6389,"MEAN_ANOMALY":253.5399,"EPHEMERIS_TYPE":0,"NORAD_CAT_ID":56368,"ELEMENT_SET_NO":999,"REV_AT_EPOCH":5591,"BSTAR":0,"MEAN_MOTION_DOT":-1.4e-7,"MEAN_MOTION_DDOT":0},{"OBJECT_NAME":"O3B MPOWER F5","OBJECT_ID":"2023-175A","EPOCH":"2026-07-10T21:29:42.350784","CLASSIFICATION_TYPE":"U","MEAN_MOTION":5.00115869,"ECCENTRICITY":0.000545,"INCLINATION":0.0517,"RA_OF_ASC_NODE":9.4875,"ARG_OF_PERICENTER":118.031,"MEAN_ANOMALY":232.5307,"EPHEMERIS_TYPE":0,"NORAD_CAT_ID":58346,"ELEMENT_SET_NO":999,"REV_AT_EPOCH":5062,"BSTAR":0,"MEAN_MOTION_DOT":-1.3e-7,"MEAN_MOTION_DDOT":0},{"OBJECT_NAME":"O3B MPOWER F6","OBJECT_ID":"2023-175B","EPOCH":"2026-07-10T23:54:23.439168","CLASSIFICATION_TYPE":"U","MEAN_MOTION":5.00115762,"ECCENTRICITY":0.0004438,"INCLINATION":0.0537,"RA_OF_ASC_NODE":1.146,"ARG_OF_PERICENTER":106.8405,"MEAN_ANOMALY":252.0614,"EPHEMERIS_TYPE":0,"NORAD_CAT_ID":58347,"ELEMENT_SET_NO":999,"REV_AT_EPOCH":4953,"BSTAR":0,"MEAN_MOTION_DOT":-1.4e-7,"MEAN_MOTION_DDOT":0},{"OBJECT_NAME":"O3B MPOWER F7","OBJECT_ID":"2024-244A","EPOCH":"2026-07-10T15:54:19.130688","CLASSIFICATION_TYPE":"U","MEAN_MOTION":5.00115255,"ECCENTRICITY":0.0005942,"INCLINATION":0.0663,"RA_OF_ASC_NODE":343.6377,"ARG_OF_PERICENTER":121.6972,"MEAN_ANOMALY":254.7305,"EPHEMERIS_TYPE":0,"NORAD_CAT_ID":62362,"ELEMENT_SET_NO":999,"REV_AT_EPOCH":2769,"BSTAR":0,"MEAN_MOTION_DOT":-1.3e-7,"MEAN_MOTION_DDOT":0},{"OBJECT_NAME":"O3B MPOWER F8","OBJECT_ID":"2024-244B","EPOCH":"2026-07-10T15:06:43.359264","CLASSIFICATION_TYPE":"U","MEAN_MOTION":5.00115019,"ECCENTRICITY":0.0005793,"INCLINATION":0.0143,"RA_OF_ASC_NODE":358.4365,"ARG_OF_PERICENTER":99.5939,"MEAN_ANOMALY":262.0351,"EPHEMERIS_TYPE":0,"NORAD_CAT_ID":62363,"ELEMENT_SET_NO":999,"REV_AT_EPOCH":2204,"BSTAR":0,"MEAN_MOTION_DOT":-1.3e-7,"MEAN_MOTION_DDOT":0}]}
